{
    "links": {
        "self": "http://www.neowsapp.com/rest/v1/neo/3825244?api_key=iIulBulltgU6a56xZRHN4H3l9WmuAYTsLGpBGhQ2"
    },
    "id": "3825244",
    "neo_reference_id": "3825244",
    "name": "(2018 LA6)",
    "designation": "2018 LA6",
    "nasa_jpl_url": "http://ssd.jpl.nasa.gov/sbdb.cgi?sstr=3825244",
    "absolute_magnitude_h": 26.7,
    "estimated_diameter": {
        "kilometers": {
            "estimated_diameter_min": 0.0121494041,
            "estimated_diameter_max": 0.0271668934
        },
        "meters": {
            "estimated_diameter_min": 12.14940408,
            "estimated_diameter_max": 27.1668934089
        },
        "miles": {
            "estimated_diameter_min": 0.0075492874,
            "estimated_diameter_max": 0.0168807197
        },
        "feet": {
            "estimated_diameter_min": 39.8602508817,
            "estimated_diameter_max": 89.1302305717
        }
    },
    "is_potentially_hazardous_asteroid": false,
    "close_approach_data": [
        {
            "close_approach_date": "2018-06-19",
            "close_approach_date_full": "2018-Jun-19 18:37",
            "epoch_date_close_approach": 1529433420000,
            "relative_velocity": {
                "kilometers_per_second": "10.9702216208",
                "kilometers_per_hour": "39492.7978348166",
                "miles_per_hour": "24539.2887435282"
            },
            "miss_distance": {
                "astronomical": "0.0261851793",
                "lunar": "10.1860347477",
                "kilometers": "3917247.048848091",
                "miles": "2434064.4470860158"
            },
            "orbiting_body": "Earth"
        },
        {
            "close_approach_date": "2074-12-24",
            "close_approach_date_full": "2074-Dec-24 22:53",
            "epoch_date_close_approach": 3312917580000,
            "relative_velocity": {
                "kilometers_per_second": "7.8145399959",
                "kilometers_per_hour": "28132.3439851698",
                "miles_per_hour": "17480.3445167851"
            },
            "miss_distance": {
                "astronomical": "0.3895910086",
                "lunar": "151.5509023454",
                "kilometers": "58281985.057711682",
                "miles": "36214746.2147659316"
            },
            "orbiting_body": "Earth"
        },
        {
            "close_approach_date": "2078-12-10",
            "close_approach_date_full": "2078-Dec-10 10:55",
            "epoch_date_close_approach": 3437895300000,
            "relative_velocity": {
                "kilometers_per_second": "18.504734219",
                "kilometers_per_hour": "66617.0431883143",
                "miles_per_hour": "41393.2399744279"
            },
            "miss_distance": {
                "astronomical": "0.2610476883",
                "lunar": "101.5475507487",
                "kilometers": "39052178.138103921",
                "miles": "24265898.2703632698"
            },
            "orbiting_body": "Earth"
        }
    ],
    "orbital_data": {
        "orbit_id": "1",
        "orbit_determination_date": "2018-06-17 11:42:07",
        "first_observation_date": "2018-06-14",
        "last_observation_date": "2018-06-17",
        "data_arc_in_days": 3,
        "observations_used": 13,
        "orbit_uncertainty": "8",
        "minimum_orbit_intersection": ".0225803",
        "jupiter_tisserand_invariant": "5.125",
        "epoch_osculation": "2458284.5",
        "eccentricity": ".3459203068488829",
        "semi_major_axis": "1.230898717754245",
        "inclination": "10.48221586327983",
        "ascending_node_longitude": "261.3627162836911",
        "orbital_period": "498.8062721322524",
        "perihelion_distance": ".8051058556088002",
        "perihelion_argument": "86.94951596106165",
        "aphelion_distance": "1.656691579899691",
        "perihelion_time": "2458350.169550655520",
        "mean_anomaly": "312.6047695131647",
        "mean_motion": ".7217230819113484",
        "equinox": "J2000",
        "orbit_class": {
            "orbit_class_type": "APO",
            "orbit_class_description": "Near-Earth asteroid orbits which cross the Earth’s orbit similar to that of 1862 Apollo",
            "orbit_class_range": "a (semi-major axis) > 1.0 AU; q (perihelion) < 1.017 AU"
        }
    },
    "is_sentry_object": false
}